[{"OBJECT_NAME":"STARLINK-31448","OBJECT_ID":"2024-080L","EPOCH":"2026-03-09T07:21:30.632256","MEAN_MOTION":15.27580783,"ECCENTRICITY":0.00014735,"INCLINATION":43.0048,"RA_OF_ASC_NODE":36.646,"ARG_OF_PERICENTER":247.8128,"MEAN_ANOMALY":112.2567,"EPHEMERIS_TYPE":0,"CLASSIFICATION_TYPE":"U","NORAD_CAT_ID":59611,"ELEMENT_SET_NO":999,"REV_AT_EPOCH":10451,"BSTAR":5.521944e-6,"MEAN_MOTION_DOT":-1.1e-6,"MEAN_MOTION_DDOT":0},{"OBJECT_NAME":"ATLAS D R\/B","OBJECT_ID":"1965-078B","EPOCH":"2026-03-09T20:46:56.586144","MEAN_MOTION":13.36861601,"ECCENTRICITY":0.09711083,"INCLINATION":144.2243,"RA_OF_ASC_NODE":158.6484,"ARG_OF_PERICENTER":223.7615,"MEAN_ANOMALY":128.1873,"EPHEMERIS_TYPE":0,"CLASSIFICATION_TYPE":"U","NORAD_CAT_ID":1616,"ELEMENT_SET_NO":999,"REV_AT_EPOCH":73741,"BSTAR":0.00067418119,"MEAN_MOTION_DOT":7.934e-5,"MEAN_MOTION_DDOT":0}]
